start=new Date('2023-06-24T00:00:00.000Z').valueOf();
sats=[{"RCS_SIZE":"LARGE","EPHEMERIS_TYPE":"0","TLE_LINE1":"1 56467U 23064V   23174.29756203  .00003710  00000-0  32599-4 0  9997","MEAN_ELEMENT_THEORY":"SGP4","CLASSIFICATION_TYPE":"U","EPOCH":"2023-06-23T07:08:29.359392","ARG_OF_PERICENTER":"263.5640","RA_OF_ASC_NODE":"122.7984","MEAN_MOTION_DOT":"0.00003710","NORAD_CAT_ID":"56467","OBJECT_ID":"2023-064V","MEAN_MOTION_DDOT":"0.0000000000000","TLE_LINE2":"2 56467  70.0002 122.7984 0003390 263.5640  96.5169 15.69932330  7210","APOAPSIS":"361.377","FILE":"3940722","REF_FRAME":"TEME","PERIAPSIS":"356.809","LAUNCH_DATE":"2023-05-10","GP_ID":"234503411","SITE":"AFWTR","OBJECT_NAME":"STARLINK-6055","ECCENTRICITY":"0.00033900","TIME_SYSTEM":"UTC","COUNTRY_CODE":"US","DECAY_DATE":null,"CENTER_NAME":"EARTH","OBJECT_TYPE":"PAYLOAD","BSTAR":"0.00003259900000","SEMIMAJOR_AXIS":"6737.228","ELEMENT_SET_NO":"999","MEAN_MOTION":"15.69932330","INCLINATION":"70.0002","PERIOD":"91.724","MEAN_ANOMALY":"96.5169","REV_AT_EPOCH":"721"},{"EPOCH":"2023-06-23T22:00:01.999584","RCS_SIZE":"LARGE","CLASSIFICATION_TYPE":"U","EPHEMERIS_TYPE":"0","TLE_LINE1":"1 56468U 23064W   23174.91668981 -.00959521  00000-0 -22854-1 0  9994","MEAN_ELEMENT_THEORY":"SGP4","NORAD_CAT_ID":"56468","MEAN_MOTION_DOT":"-0.00959521","RA_OF_ASC_NODE":"121.9746","ARG_OF_PERICENTER":"267.3411","MEAN_MOTION_DDOT":"0.0000000000000","OBJECT_ID":"2023-064W","FILE":"3941018","APOAPSIS":"436.291","TLE_LINE2":"2 56468  70.0004 121.9746 0003247 267.3411 275.2473 15.44082060  7290","LAUNCH_DATE":"2023-05-10","PERIAPSIS":"431.867","GP_ID":"234510479","REF_FRAME":"TEME","ECCENTRICITY":"0.00032470","OBJECT_NAME":"STARLINK-5998","TIME_SYSTEM":"UTC","SITE":"AFWTR","COUNTRY_CODE":"US","CENTER_NAME":"EARTH","DECAY_DATE":null,"OBJECT_TYPE":"PAYLOAD","BSTAR":"-0.02285400000000","MEAN_ANOMALY":"275.2473","PERIOD":"93.259","REV_AT_EPOCH":"729","MEAN_MOTION":"15.44082060","SEMIMAJOR_AXIS":"6812.214","ELEMENT_SET_NO":"999","INCLINATION":"70.0004"},{"RA_OF_ASC_NODE":"122.9795","ARG_OF_PERICENTER":"253.8741","MEAN_MOTION_DOT":"0.00004313","NORAD_CAT_ID":"56469","TLE_LINE1":"1 56469U 23064X   23174.23416239  .00004313  00000-0  37604-4 0  9997","MEAN_ELEMENT_THEORY":"SGP4","EPHEMERIS_TYPE":"0","CLASSIFICATION_TYPE":"U","RCS_SIZE":"LARGE","EPOCH":"2023-06-23T05:37:11.630496","REF_FRAME":"TEME","GP_ID":"234503620","LAUNCH_DATE":"2023-05-10","PERIAPSIS":"357.168","TLE_LINE2":"2 56469  70.0009 122.9795 0002847 253.8741 106.2141 15.69934620  7203","FILE":"3940722","APOAPSIS":"361.004","OBJECT_ID":"2023-064X","MEAN_MOTION_DDOT":"0.0000000000000","DECAY_DATE":null,"CENTER_NAME":"EARTH","COUNTRY_CODE":"US","SITE":"AFWTR","TIME_SYSTEM":"UTC","OBJECT_NAME":"STARLINK-5518","ECCENTRICITY":"0.00028470","ELEMENT_SET_NO":"999","SEMIMAJOR_AXIS":"6737.221","INCLINATION":"70.0009","MEAN_MOTION":"15.69934620","REV_AT_EPOCH":"720","MEAN_ANOMALY":"106.2141","PERIOD":"91.724","BSTAR":"0.00003760400000","OBJECT_TYPE":"PAYLOAD"},{"APOAPSIS":"361.350","FILE":"3939861","TLE_LINE2":"2 56470  69.9988 125.4835 0003313 268.3719  91.7097 15.69923455  7062","MEAN_MOTION_DDOT":"0.0000000000000","OBJECT_ID":"2023-064Y","REF_FRAME":"TEME","GP_ID":"234456502","LAUNCH_DATE":"2023-05-10","PERIAPSIS":"356.886","CLASSIFICATION_TYPE":"U","TLE_LINE1":"1 56470U 23064Y   23173.34191973  .00000658  00000-0  72424-5 0  9993","EPHEMERIS_TYPE":"0","MEAN_ELEMENT_THEORY":"SGP4","RCS_SIZE":"LARGE","EPOCH":"2023-06-22T08:12:21.864672","RA_OF_ASC_NODE":"125.4835","ARG_OF_PERICENTER":"268.3719","MEAN_MOTION_DOT":"0.00000658","NORAD_CAT_ID":"56470","BSTAR":"0.00000724240000","OBJECT_TYPE":"PAYLOAD","SEMIMAJOR_AXIS":"6737.253","ELEMENT_SET_NO":"999","MEAN_MOTION":"15.69923455","INCLINATION":"69.9988","REV_AT_EPOCH":"706","PERIOD":"91.724","MEAN_ANOMALY":"91.7097","SITE":"AFWTR","TIME_SYSTEM":"UTC","ECCENTRICITY":"0.00033130","OBJECT_NAME":"STARLINK-5523","CENTER_NAME":"EARTH","DECAY_DATE":null,"COUNTRY_CODE":"US"},{"OBJECT_ID":"2023-064Z","MEAN_MOTION_DDOT":"0.0000000000000","TLE_LINE2":"2 56471  69.9997 122.7971 0002992 258.5978 101.4882 15.69918279  7210","APOAPSIS":"361.149","FILE":"3941018","REF_FRAME":"TEME","LAUNCH_DATE":"2023-05-10","PERIAPSIS":"357.117","GP_ID":"234510485","RCS_SIZE":"LARGE","TLE_LINE1":"1 56471U 23064Z   23174.29735699  .00000068  00000-0  23348-5 0  9994","EPHEMERIS_TYPE":"0","MEAN_ELEMENT_THEORY":"SGP4","CLASSIFICATION_TYPE":"U","EPOCH":"2023-06-23T07:08:11.643936","RA_OF_ASC_NODE":"122.7971","ARG_OF_PERICENTER":"258.5978","NORAD_CAT_ID":"56471","MEAN_MOTION_DOT":"0.00000068","OBJECT_TYPE":"PAYLOAD","BSTAR":"0.00000233480000","ELEMENT_SET_NO":"999","SEMIMAJOR_AXIS":"6737.268","MEAN_MOTION":"15.69918279","INCLINATION":"69.9997","PERIOD":"91.725","MEAN_ANOMALY":"101.4882","REV_AT_EPOCH":"721","SITE":"AFWTR","OBJECT_NAME":"STARLINK-5521","ECCENTRICITY":"0.00029920","TIME_SYSTEM":"UTC","COUNTRY_CODE":"US","DECAY_DATE":null,"CENTER_NAME":"EARTH"},{"SITE":"AFWTR","TIME_SYSTEM":"UTC","OBJECT_NAME":"STARLINK-5038","ECCENTRICITY":"0.00030520","DECAY_DATE":null,"CENTER_NAME":"EARTH","COUNTRY_CODE":"US","BSTAR":"0.00000542460000","OBJECT_TYPE":"PAYLOAD","MEAN_MOTION":"15.69921638","SEMIMAJOR_AXIS":"6737.258","ELEMENT_SET_NO":"999","INCLINATION":"70.0006","REV_AT_EPOCH":"720","MEAN_ANOMALY":"110.0872","PERIOD":"91.724","TLE_LINE1":"1 56472U 23064AA  23174.23374342  .00000440  00000-0  54246-5 0  9998","EPHEMERIS_TYPE":"0","MEAN_ELEMENT_THEORY":"SGP4","CLASSIFICATION_TYPE":"U","RCS_SIZE":"LARGE","EPOCH":"2023-06-23T05:36:35.431488","ARG_OF_PERICENTER":"249.9996","RA_OF_ASC_NODE":"122.9790","MEAN_MOTION_DOT":"0.00000440","NORAD_CAT_ID":"56472","TLE_LINE2":"2 56472  70.0006 122.9790 0003052 249.9996 110.0872 15.69921638  7205","FILE":"3940722","APOAPSIS":"361.179","OBJECT_ID":"2023-064AA","MEAN_MOTION_DDOT":"0.0000000000000","REF_FRAME":"TEME","GP_ID":"234503622","PERIAPSIS":"357.067","LAUNCH_DATE":"2023-05-10"},{"OBJECT_NAME":"STARLINK-5486","ECCENTRICITY":"0.00034230","TIME_SYSTEM":"UTC","SITE":"AFWTR","COUNTRY_CODE":"US","DECAY_DATE":null,"CENTER_NAME":"EARTH","OBJECT_TYPE":"PAYLOAD","BSTAR":"0.00001270200000","MEAN_ANOMALY":"94.7431","PERIOD":"91.724","REV_AT_EPOCH":"706","ELEMENT_SET_NO":"999","SEMIMAJOR_AXIS":"6737.248","MEAN_MOTION":"15.69925162","INCLINATION":"69.9971","EPOCH":"2023-06-22T08:11:27.157056","RCS_SIZE":"LARGE","EPHEMERIS_TYPE":"0","TLE_LINE1":"1 56473U 23064AB  23173.34128654  .00001315  00000-0  12702-4 0  9995","MEAN_ELEMENT_THEORY":"SGP4","CLASSIFICATION_TYPE":"U","MEAN_MOTION_DOT":"0.00001315","NORAD_CAT_ID":"56473","RA_OF_ASC_NODE":"125.4813","ARG_OF_PERICENTER":"265.3373","OBJECT_ID":"2023-064AB","MEAN_MOTION_DDOT":"0.0000000000000","TLE_LINE2":"2 56473  69.9971 125.4813 0003423 265.3373  94.7431 15.69925162  7060","APOAPSIS":"361.419","FILE":"3939861","PERIAPSIS":"356.807","LAUNCH_DATE":"2023-05-10","GP_ID":"234456006","REF_FRAME":"TEME"},{"MEAN_MOTION_DOT":"0.00002372","NORAD_CAT_ID":"56474","RA_OF_ASC_NODE":"125.4833","ARG_OF_PERICENTER":"266.7703","EPOCH":"2023-06-22T08:12:30.762144","CLASSIFICATION_TYPE":"U","EPHEMERIS_TYPE":"0","TLE_LINE1":"1 56474U 23064AC  23173.34202271  .00002372  00000-0  21488-4 0  9999","MEAN_ELEMENT_THEORY":"SGP4","RCS_SIZE":"LARGE","GP_ID":"234456016","PERIAPSIS":"356.829","LAUNCH_DATE":"2023-05-10","REF_FRAME":"TEME","FILE":"3939855","APOAPSIS":"361.383","TLE_LINE2":"2 56474  69.9977 125.4833 0003380 266.7703  93.3106 15.69927591  7065","MEAN_MOTION_DDOT":"0.0000000000000","OBJECT_ID":"2023-064AC","CENTER_NAME":"EARTH","DECAY_DATE":null,"COUNTRY_CODE":"US","TIME_SYSTEM":"UTC","ECCENTRICITY":"0.00033800","OBJECT_NAME":"STARLINK-5524","SITE":"AFWTR","REV_AT_EPOCH":"706","MEAN_ANOMALY":"93.3106","PERIOD":"91.724","MEAN_MOTION":"15.69927591","SEMIMAJOR_AXIS":"6737.241","ELEMENT_SET_NO":"999","INCLINATION":"69.9977","BSTAR":"0.00002148800000","OBJECT_TYPE":"PAYLOAD"},{"REF_FRAME":"TEME","LAUNCH_DATE":"2023-05-10","PERIAPSIS":"356.894","GP_ID":"234500418","MEAN_MOTION_DDOT":"0.0000000000000","OBJECT_ID":"2023-064AD","FILE":"3940607","APOAPSIS":"361.345","TLE_LINE2":"2 56475  69.9996 122.9739 0003303 262.6591  97.4229 15.69922857  7206","RA_OF_ASC_NODE":"122.9739","ARG_OF_PERICENTER":"262.6591","MEAN_MOTION_DOT":"0.00000931","NORAD_CAT_ID":"56475","RCS_SIZE":"LARGE","CLASSIFICATION_TYPE":"U","TLE_LINE1":"1 56475U 23064AD  23174.23300448  .00000931  00000-0  95151-5 0  9992","EPHEMERIS_TYPE":"0","MEAN_ELEMENT_THEORY":"SGP4","EPOCH":"2023-06-23T05:35:31.587072","SEMIMAJOR_AXIS":"6737.255","ELEMENT_SET_NO":"999","MEAN_MOTION":"15.69922857","INCLINATION":"69.9996","PERIOD":"91.724","MEAN_ANOMALY":"97.4229","REV_AT_EPOCH":"720","OBJECT_TYPE":"PAYLOAD","BSTAR":"0.00000951510000","COUNTRY_CODE":"US","CENTER_NAME":"EARTH","DECAY_DATE":null,"SITE":"AFWTR","ECCENTRICITY":"0.00033030","OBJECT_NAME":"STARLINK-5541","TIME_SYSTEM":"UTC"},{"OBJECT_TYPE":"PAYLOAD","BSTAR":"0.00001184100000","MEAN_ANOMALY":"99.3333","PERIOD":"91.724","REV_AT_EPOCH":"716","SEMIMAJOR_AXIS":"6737.256","INCLINATION":"69.9978","ELEMENT_SET_NO":"999","MEAN_MOTION":"15.69922405","ECCENTRICITY":"0.00032180","OBJECT_NAME":"STARLINK-5545","TIME_SYSTEM":"UTC","SITE":"AFWTR","COUNTRY_CODE":"US","CENTER_NAME":"EARTH","DECAY_DATE":null,"MEAN_MOTION_DDOT":"0.0000000000000","OBJECT_ID":"2023-064AE","APOAPSIS":"361.289","FILE":"3940451","TLE_LINE2":"2 56476  69.9978 123.6915 0003218 260.7499  99.3333 15.69922405  7163","LAUNCH_DATE":"2023-05-10","PERIAPSIS":"356.953","GP_ID":"234496972","REF_FRAME":"TEME","EPOCH":"2023-06-22T23:29:16.708704","RCS_SIZE":"LARGE","CLASSIFICATION_TYPE":"U","TLE_LINE1":"1 56476U 23064AE  23173.97866561  .00001211  00000-0  11841-4 0  9991","EPHEMERIS_TYPE":"0","MEAN_ELEMENT_THEORY":"SGP4","NORAD_CAT_ID":"56476","MEAN_MOTION_DOT":"0.00001211","ARG_OF_PERICENTER":"260.7499","RA_OF_ASC_NODE":"123.6915"}];
